ONEWEB-0531             
1 54146U 22138AK  25086.49468748  .00000147  00000+0  32865-3 0  9995
2 54146  87.9338   3.3483 0000970  89.6913 270.4331 13.20774691121210
ONEWEB-0535             
1 54147U 22138AL  25086.36674482 -.00000315  00000+0 -81962-3 0  9997
2 54147  87.9228  33.7520 0001682  84.5306 275.6018 13.19725303117903
ONEWEB-0536             
1 54148U 22138AM  25086.70933527  .00000117  00000+0  25530-3 0  9991
2 54148  87.9336   3.3522 0000734  80.0123 280.1094 13.20774871121236
ONEWEB-0527             
1 54642U 22166A   25086.63827128  .00000157  00000+0  34799-3 0  9993
2 54642  87.9321 333.0361 0001743  77.5981 282.5348 13.21828577112992
ONEWEB-0528             
1 54643U 22166B   25086.41748543  .00000068  00000+0  13263-3 0  9997
2 54643  87.9321 333.0766 0001838  76.8367 283.2972 13.21829059112972
ONEWEB-0539             
1 54644U 22166C   25086.60516041  .00000002  00000+0 -27722-4 0  9990
2 54644  87.9301 333.0353 0001914  82.7424 277.3928 13.21823337112998
ONEWEB-0540             
1 54645U 22166D   25086.68717220  .00000060  00000+0  11269-3 0  9992
2 54645  87.9316 333.0363 0002001  83.2160 276.9202 13.21827253113012
ONEWEB-0542             
1 54646U 22166E   25086.61461811  .00000097  00000+0  20228-3 0  9993
2 54646  87.9300 333.0319 0001983  91.1413 268.9948 13.21828739113001
